{
  "type": "Feature",
  "properties": {
    "name": "Arabia Terra",
    "source": "https://planetarynames.wr.usgs.gov/Feature/336",
    "source_geometry_id": "wkt-25452",
    "coordinate_convention": "planetocentric latitude, east longitude in [-180,180]",
    "retrieved_utc": "2026-09-28T12:25:38.370112+00:00",
    "role": "Approximate named-feature footprint, not a geological boundary",
    "credit": "USGS Gazetteer of Planetary Nomenclature / IAU",
    "reuse_basis": "USGS-produced numerical information; US public domain, attribution retained",
    "terms_url": "https://www.usgs.gov/information-policies-and-instructions/copyrights-and-credits"
  },
  "geometry": {
    "type": "MultiPolygon",
    "coordinates": [
      [
        [
          [
            49.435625076294,
            42.65523338317871
          ],
          [
            49.09699821472179,
            41.41361045837408
          ],
          [
            46.27512931823725,
            39.38186454772955
          ],
          [
            43.90476036071783,
            37.011495590210075
          ],
          [
            42.098764419555664,
            32.948003768920955
          ],
          [
            39.95414161682129,
            29.78750801086437
          ],
          [
            39.051145553588924,
            23.353647232055778
          ],
          [
            37.80952262878429,
            20.08027839660639
          ],
          [
            29.908288955688477,
            16.24253654479992
          ],
          [
            24.82892417907715,
            14.888040542602653
          ],
          [
            18.959436416626033,
            10.485921859741268
          ],
          [
            14.670194625854492,
            5.180807113647518
          ],
          [
            9.026456832885799,
            -1.027303695678654
          ],
          [
            1.2530319653229185,
            -8.075207764690674
          ],
          [
            -5.3086414337157635,
            -15.588150024414006
          ],
          [
            -7.90476036071766,
            -18.071395874023438
          ],
          [
            -9.823629379272404,
            -16.039649963378906
          ],
          [
            -9.597883224487191,
            -13.104904174804688
          ],
          [
            -9.823629379272404,
            -10.7345352172851
          ],
          [
            -10.839502334594613,
            -7.009666442871037
          ],
          [
            -13.322748184204045,
            -3.059049606323242
          ],
          [
            -15.805994033813306,
            -0.3500556945800213
          ],
          [
            -16.70899391174305,
            2.020315170288086
          ],
          [
            -17.386240005492994,
            4.164934158325309
          ],
          [
            -18.063489913940316,
            5.970930099487418
          ],
          [
            -19.19223594665516,
            7.438302993774471
          ],
          [
            -21.449731826782227,
            8.115552902221793
          ],
          [
            -22.46560478210432,
            9.470048904419059
          ],
          [
            -23.707227706909123,
            10.373048782348633
          ],
          [
            -25.400350570678654,
            11.16317176818859
          ],
          [
            -27.093469619750977,
            12.404794692993221
          ],
          [
            -28.335092544555607,
            14.775163650512638
          ],
          [
            -29.689592361450025,
            17.03265953063965
          ],
          [
            -29.125215530395337,
            19.628778457641715
          ],
          [
            -26.754846572875977,
            22.22489738464361
          ],
          [
            -21.901231765747013,
            25.49826622009283
          ],
          [
            -18.627862930297795,
            28.658761978149357
          ],
          [
            -10.952379226684343,
            33.39949989318848
          ],
          [
            -6.324514389037972,
            35.995622634887695
          ],
          [
            0.0,
            38.91462801123521
          ],
          [
            0.0,
            38.97055625915522
          ],
          [
            1.0123462677001953,
            39.38186454772955
          ],
          [
            7.5590839385987465,
            41.300737380981445
          ],
          [
            11.396825790405273,
            42.65523338317871
          ],
          [
            15.347444534301758,
            42.20373344421387
          ],
          [
            18.28218650817871,
            42.316610336303825
          ],
          [
            21.55555534362793,
            40.96211051940924
          ],
          [
            25.167547225952205,
            41.07498741149902
          ],
          [
            29.908288955688477,
            41.86511039733898
          ],
          [
            34.08465385437023,
            41.75223350524897
          ],
          [
            38.26102256774897,
            44.2354793548584
          ],
          [
            47.40387916564947,
            45.36422920227062
          ],
          [
            49.435625076294,
            42.65523338317871
          ]
        ]
      ]
    ]
  }
}
